[{"OBJECT_NAME":"STARLINK-33950","OBJECT_ID":"2025-087E","EPOCH":"2026-03-09T17:29:57.630336","MEAN_MOTION":15.30192816,"ECCENTRICITY":9.985e-5,"INCLINATION":53.1597,"RA_OF_ASC_NODE":219.517,"ARG_OF_PERICENTER":101.0763,"MEAN_ANOMALY":259.035,"EPHEMERIS_TYPE":0,"CLASSIFICATION_TYPE":"U","NORAD_CAT_ID":63701,"ELEMENT_SET_NO":999,"REV_AT_EPOCH":4920,"BSTAR":0.00043160775,"MEAN_MOTION_DOT":0.00012442,"MEAN_MOTION_DDOT":0},{"OBJECT_NAME":"KUIPER-00222","OBJECT_ID":"2026-030U","EPOCH":"2026-03-09T16:13:57.726048","MEAN_MOTION":15.32445377,"ECCENTRICITY":0.00128002,"INCLINATION":51.8817,"RA_OF_ASC_NODE":219.7147,"ARG_OF_PERICENTER":40.1845,"MEAN_ANOMALY":320.0084,"EPHEMERIS_TYPE":0,"CLASSIFICATION_TYPE":"U","NORAD_CAT_ID":67782,"ELEMENT_SET_NO":999,"REV_AT_EPOCH":508,"BSTAR":0.0017317201,"MEAN_MOTION_DOT":0.00055223,"MEAN_MOTION_DDOT":0}]
