STARLINK-33950          
1 63701U 25087E   26068.72913924  .00012442  00000+0  43161-3 0  9998
2 63701  53.1597 219.5170 0000999 101.0763 259.0350 15.30192816 49204
KUIPER-00222            
1 67782U 26030U   26068.67636257  .00055223  00000+0  17317-2 0  9992
2 67782  51.8817 219.7147 0012800  40.1845 320.0084 15.32445377  5087
